[{"OBJECT_NAME":"STARLINK-32657","OBJECT_ID":"2024-254P","EPOCH":"2026-03-09T05:22:12.579744","MEAN_MOTION":15.27562695,"ECCENTRICITY":0.0001536,"INCLINATION":43.0009,"RA_OF_ASC_NODE":22.3035,"ARG_OF_PERICENTER":254.2354,"MEAN_ANOMALY":105.8328,"EPHEMERIS_TYPE":0,"CLASSIFICATION_TYPE":"U","NORAD_CAT_ID":62475,"ELEMENT_SET_NO":999,"REV_AT_EPOCH":6739,"BSTAR":0.00093504299,"MEAN_MOTION_DOT":0.00025544,"MEAN_MOTION_DDOT":0},{"OBJECT_NAME":"OBJECT BE","OBJECT_ID":"2025-313BE","EPOCH":"2026-03-09T16:43:59.380320","MEAN_MOTION":15.29801687,"ECCENTRICITY":0.00072083,"INCLINATION":97.3989,"RA_OF_ASC_NODE":145.3568,"ARG_OF_PERICENTER":335.3714,"MEAN_ANOMALY":24.7181,"EPHEMERIS_TYPE":0,"CLASSIFICATION_TYPE":"U","NORAD_CAT_ID":67482,"ELEMENT_SET_NO":999,"REV_AT_EPOCH":797,"BSTAR":0.0026504328,"MEAN_MOTION_DOT":0.00077178,"MEAN_MOTION_DDOT":0}]
