STARLINK-32657          
1 62475U 24254P   26068.22375671  .00025544  00000+0  93504-3 0  9999
2 62475  43.0009  22.3035 0001536 254.2354 105.8328 15.27562695 67397
2025-313BE              
1 67482U 25313BE  26068.69721505  .00077178  00000+0  26504-2 0  9996
2 67482  97.3989 145.3568 0007208 335.3714  24.7181 15.29801687  7972
